H1 CPF 01  gfz 2022 05 20 00  6401 terrasarx 
H2 0702601  6201 31698    2022 05 20 00 59 42 2022 05 25 00 00 42   120 1 1  0 0 0
H9
10 0 59722   9342.000000  0    4287414.710   4908229.447  -2242958.738
10 0 59722   9462.000000  0    4191067.827   4526474.561  -3075713.139
10 0 59722   9582.000000  0    4014344.612   4068238.084  -3854497.445
10 0 59722   9702.000000  0    3759141.335   3542968.782  -4565715.626
10 0 59722   9822.000000  0    3428889.892   2961219.782  -5196985.300
10 0 59722   9942.000000  0    3028507.437   2334431.399  -5737347.416
10 0 59722  10062.000000  0    2564317.680   1674702.525  -6177447.187
10 0 59722  10182.000000  0    2043946.094    994555.405  -6509684.881
10 0 59722  10302.000000  0    1476191.923    306699.438  -6728334.477
10 0 59722  10422.000000  0     870880.106   -376202.032  -6829633.264
10 0 59722  10542.000000  0     238691.983  -1041760.656  -6811840.094
10 0 59722  10662.000000  0    -409019.361  -1678081.987  -6675260.084
10 0 59722  10782.000000  0   -1060427.216  -2273971.804  -6422240.454
10 0 59722  10902.000000  0   -1703442.343  -2819129.770  -6057135.492
10 0 59722  11022.000000  0   -2325932.057  -3304325.738  -5586238.869
10 0 59722  11142.000000  0   -2915945.116  -3721556.723  -5017686.665
10 0 59722  11262.000000  0   -3461940.868  -4064183.422  -4361328.960
10 0 59722  11382.000000  0   -3953016.398  -4327041.411  -3628569.189
10 0 59722  11502.000000  0   -4379127.124  -4506525.117  -2832174.963
10 0 59722  11622.000000  0   -4731296.815  -4600642.536  -1986061.170
10 0 59722  11742.000000  0   -5001811.261  -4609038.263  -1105048.774
10 0 59722  11862.000000  0   -5184390.544  -4532984.078   -204603.497
10 0 59722  11982.000000  0   -5274335.534  -4375337.043    699440.681
10 0 59722  12102.000000  0   -5268643.825  -4140464.967   1591168.528
10 0 59722  12222.000000  0   -5166090.968  -3834140.059   2454873.541
10 0 59722  12342.000000  0   -4967275.445  -3463404.202   3275343.252
10 0 59722  12462.000000  0   -4674626.678  -3036410.036   4038134.110
10 0 59722  12582.000000  0   -4292375.652  -2562241.296   4729831.121
10 0 59722  12702.000000  0   -3826488.656  -2050717.143   5338284.568
10 0 59722  12822.000000  0   -3284568.656  -1512187.238   5852820.870
10 0 59722  12942.000000  0   -2675725.755   -957320.995   6264427.150
10 0 59722  13062.000000  0   -2010417.542   -396893.854   6565904.896
10 0 59722  13182.000000  0   -1300263.680    158423.301   6751988.657
10 0 59722  13302.000000  0    -557840.661    698265.545   6819431.235
10 0 59722  13422.000000  0     203540.951   1212766.258   6767056.963
10 0 59722  13542.000000  0     970074.492   1692737.093   6595781.142
10 0 59722  13662.000000  0    1727707.004   2129832.341   6308594.693
10 0 59722  13782.000000  0    2462395.876   2516693.969   5910514.839
10 0 59722  13902.000000  0    3160369.446   2847076.823   5408503.754
10 0 59722  14022.000000  0    3808388.365   3115952.079   4811353.014
10 0 59722  14142.000000  0    4393999.836   3319586.204   4129534.284
10 0 59722  14262.000000  0    4905782.232   3455593.896   3375022.149
10 0 59722  14382.000000  0    5333577.531   3522965.074   2561084.879
10 0 59722  14502.000000  0    5668698.731   3522061.278   1702048.898
10 0 59722  14622.000000  0    5904111.804   3454585.188    813042.851
10 0 59722  14742.000000  0    6034586.564   3323521.916    -90276.394
10 0 59722  14862.000000  0    6056811.187   3133052.879   -992008.349
10 0 59722  14982.000000  0    5969468.522   2888445.015  -1876297.405
10 0 59722  15102.000000  0    5773271.317   2595919.549  -2727618.715
10 0 59722  15222.000000  0    5470957.473   2262503.248  -3531056.408
10 0 59722  15342.000000  0    5067245.521   1895864.931  -4272567.566
10 0 59722  15462.000000  0    4568750.640   1504142.084  -4939227.686
10 0 59722  15582.000000  0    3983864.272   1095762.603  -5519449.764
10 0 59722  15702.000000  0    3322603.654    679266.600  -6003176.977
10 0 59722  15822.000000  0    2596432.347    263131.091  -6382046.972
10 0 59722  15942.000000  0    1818056.621   -144398.496  -6649524.454
10 0 59722  16062.000000  0    1001203.235   -535467.226  -6801003.369
10 0 59722  16182.000000  0     160379.148   -902758.188  -6833878.891
10 0 59722  16302.000000  0    -689381.796  -1239625.215  -6747585.566
10 0 59722  16422.000000  0   -1532780.504  -1540209.600  -6543606.189
10 0 59722  16542.000000  0   -2354522.111  -1799540.066  -6225449.575
10 0 59722  16662.000000  0   -3139587.197  -2013613.756  -5798595.679
10 0 59722  16782.000000  0   -3873501.705  -2179458.044  -5270412.007
10 0 59722  16902.000000  0   -4542604.830  -2295172.452  -4650038.618
10 0 59722  17022.000000  0   -5134307.011  -2359948.563  -3948240.748
10 0 59722  17142.000000  0   -5637333.585  -2374068.000  -3177232.090
10 0 59722  17262.000000  0   -6041949.255  -2338877.705  -2350469.017
10 0 59722  17382.000000  0   -6340156.904  -2256742.589  -1482419.153
10 0 59722  17502.000000  0   -6525866.275  -2130976.614   -588307.942
10 0 59722  17622.000000  0   -6595026.947  -1965753.304    316152.416
10 0 59722  17742.000000  0   -6545722.192  -1765997.605   1215045.997
10 0 59722  17862.000000  0   -6378219.952  -1537261.570   2092542.354
10 0 59722  17982.000000  0   -6094978.850  -1285587.784   2933184.626
10 0 59722  18102.000000  0   -5700610.419  -1017363.413   3722169.615
10 0 59722  18222.000000  0   -5201797.704   -739168.418   4445615.688
10 0 59722  18342.000000  0   -4607171.255   -457622.639   5090809.051
10 0 59722  18462.000000  0   -3927151.050   -179235.601   5646425.668
10 0 59722  18582.000000  0   -3173755.280     89738.279   6102728.017
10 0 59722  18702.000000  0   -2360379.081    343435.494   6451730.872
10 0 59722  18822.000000  0   -1501550.135    576506.462   6687334.954
10 0 59722  18942.000000  0    -612665.160    784224.920   6805427.599
10 0 59722  19062.000000  0     290287.056    962581.719   6803949.169
10 0 59722  19182.000000  0    1191012.344   1108361.089   6682926.393
10 0 59722  19302.000000  0    2073204.079   1219198.895   6444472.068
10 0 59722  19422.000000  0    2920837.445   1293621.088   6092750.577
10 0 59722  19542.000000  0    3718461.701   1331062.122   5633910.412
10 0 59722  19662.000000  0    4451484.725   1331862.949   5075981.447
10 0 59722  19782.000000  0    5106443.920   1297249.137   4428741.541
10 0 59722  19902.000000  0    5671262.846   1229289.213   3703551.689
10 0 59722  20022.000000  0    6135484.145   1130834.163   2913157.840
10 0 59722  20142.000000  0    6490471.830   1005437.978   2071466.538
10 0 59722  20262.000000  0    6729581.646    857262.550   1193298.082
10 0 59722  20382.000000  0    6848292.722    690968.498    294119.115
10 0 59722  20502.000000  0    6844297.638    511594.438   -610237.225
10 0 59722  20622.000000  0    6717547.506    324427.927  -1503859.969
10 0 59722  20742.000000  0    6470250.361    134871.643  -2371048.648
10 0 59722  20862.000000  0    6106825.135    -51692.373  -3196595.330
10 0 59722  20982.000000  0    5633812.569   -230036.178  -3966055.401
10 0 59722  21102.000000  0    5059744.690   -395213.901  -4666001.204
10 0 59722  21222.000000  0    4394977.256   -542680.527  -5284252.139
10 0 59722  21342.000000  0    3651492.297   -668399.560  -5810079.033
10 0 59722  21462.000000  0    2842673.717   -768938.244  -6234381.483
10 0 59722  21582.000000  0    1983060.131   -841547.069  -6549834.232
10 0 59722  21702.000000  0    1088082.247   -884222.440  -6751001.694
10 0 59722  21822.000000  0     173788.409   -895753.108  -6834422.645
10 0 59722  21942.000000  0    -743438.701   -875747.611  -6798662.884
10 0 59722  22062.000000  0   -1647168.363   -824643.936  -6644337.141
10 0 59722  22182.000000  0   -2521209.931   -743700.447  -6374099.649
10 0 59722  22302.000000  0   -3349896.068   -634968.686  -5992602.028
10 0 59722  22422.000000  0   -4118358.604   -501248.446  -5506423.032
10 0 59722  22542.000000  0   -4812796.246   -346025.316  -4923966.259
10 0 59722  22662.000000  0   -5420725.572   -173391.942  -4255326.026
10 0 59722  22782.000000  0   -5931213.454     12045.534  -3512124.231
10 0 59722  22902.000000  0   -6335085.105    205275.286  -2707316.445
10 0 59722  23022.000000  0   -6625101.780    400998.841  -1854971.510
10 0 59722  23142.000000  0   -6796104.033    593759.762   -970027.044
10 0 59722  23262.000000  0   -6845116.328    778077.309    -68023.768
10 0 59722  23382.000000  0   -6771405.895    948582.905    835174.344
10 0 59722  23502.000000  0   -6576498.383   1100155.589   1723665.740
10 0 59722  23622.000000  0   -6264149.020   1228053.071   2581800.381
10 0 59722  23742.000000  0   -5840267.729   1328034.605   3394464.756
10 0 59722  23862.000000  0   -5312800.268   1396472.466   4147355.372
10 0 59722  23982.000000  0   -4691569.851   1430449.434   4827234.139
10 0 59722  24102.000000  0   -3988084.383   1427839.849   5422161.480
10 0 59722  24222.000000  0   -3215314.557   1387372.688   5921703.851
10 0 59722  24342.000000  0   -2387447.035   1308675.366   6317113.642
10 0 59722  24462.000000  0   -1519616.439   1192297.856   6601477.545
10 0 59722  24582.000000  0    -627623.647   1039715.702   6769829.990
10 0 59722  24702.000000  0     272352.798    853312.857   6819233.500
10 0 59722  24822.000000  0    1164049.193    636344.234   6748826.397
10 0 59722  24942.000000  0    2031409.203    392879.125   6559836.871
10 0 59722  25062.000000  0    2858871.777    127725.848   6255563.516
10 0 59722  25182.000000  0    3631651.344   -153661.531   5841322.518
10 0 59722  25302.000000  0    4336004.883   -445292.910   5324359.740
10 0 59722  25422.000000  0    4959481.015   -740766.203   4713730.161
10 0 59722  25542.000000  0    5491147.514  -1033403.629   4020144.932
10 0 59722  25662.000000  0    5921791.955  -1316397.920   3255787.671
10 0 59722  25782.000000  0    6244091.459  -1582964.909   2434101.410
99
